[{"OBJECT_NAME":"IRIDIUM 139","OBJECT_ID":"2017-061J","EPOCH":"2026-03-09T23:30:10.706112","MEAN_MOTION":14.34217511,"ECCENTRICITY":0.00020273,"INCLINATION":86.3918,"RA_OF_ASC_NODE":66.7885,"ARG_OF_PERICENTER":90.2934,"MEAN_ANOMALY":269.8494,"EPHEMERIS_TYPE":0,"CLASSIFICATION_TYPE":"U","NORAD_CAT_ID":42963,"ELEMENT_SET_NO":999,"REV_AT_EPOCH":44062,"BSTAR":-3.48826e-7,"MEAN_MOTION_DOT":1.9e-7,"MEAN_MOTION_DDOT":0},{"OBJECT_NAME":"CZ-6A DEB","OBJECT_ID":"2024-140AAZ","EPOCH":"2026-03-09T11:29:26.627424","MEAN_MOTION":14.33168901,"ECCENTRICITY":0.00350575,"INCLINATION":88.657,"RA_OF_ASC_NODE":261.1553,"ARG_OF_PERICENTER":226.298,"MEAN_ANOMALY":133.5312,"EPHEMERIS_TYPE":0,"CLASSIFICATION_TYPE":"U","NORAD_CAT_ID":61491,"ELEMENT_SET_NO":999,"REV_AT_EPOCH":7794,"BSTAR":0.0001963207,"MEAN_MOTION_DOT":5.58e-6,"MEAN_MOTION_DDOT":0}]
